STARLINK-36600          
1 67623U 26020G   26052.90067865  .00379536  00000+0  22214-2 0  9995
2 67623  42.9980 238.1795 0001303 301.3177  58.7565 15.76462580  3599
STARLINK-36439          
1 67624U 26020H   26052.57292176  .00288750  00000+0  17131-2 0  9993
2 67624  42.9985 240.0151 0001719 268.4980  91.5693 15.76410406  3541
STARLINK-36438          
1 67625U 26020J   26052.89630437  .00426135  00000+0  24792-2 0  9997
2 67625  42.9981 238.1445 0002234   1.1944 358.8931 15.76469429  3595
STARLINK-36436          
1 67626U 26020K   26053.16668981 -.00015307  00000+0 -91063-4 0  9998
2 67626  42.9995 236.0966 0001788 262.4400 355.6581 15.76391927  4895
STARLINK-36502          
1 67627U 26020L   26053.16668981 -.01689732  00000+0 -11016-1 0  9996
2 67627  42.9995 235.9437 0001630 272.3740  47.0592 15.77750497  4896
STARLINK-36532          
1 67628U 26020M   26052.00002315 -.01059876  00000+0 -56007-2 0  9992
2 67628  42.9990 243.0484 0001753 255.9501 269.5962 15.82335971  4706
STARLINK-36367          
1 67629U 26020N   26052.56197514  .00279525  00000+0  16431-2 0  9999
2 67629  42.9981 239.9262 0002655 262.3537  97.7031 15.76645475  3543
STARLINK-36416          
1 67630U 26020P   26052.89409861  .00455191  00000+0  26051-2 0  9992
2 67630  42.9981 238.1262 0005053 270.6348  89.3943 15.76756061  3591
STARLINK-36527          
1 67631U 26020Q   26052.91690129  .00188805  00000+0  87828-3 0  9990
2 67631  42.9984 237.4118 0001567 268.4425  91.6268 15.82051870  3605
STARLINK-36633          
1 67632U 26020R   26053.16668981  .00022990  00000+0  14371-3 0  9995
2 67632  42.9997 236.0345 0001817 260.7644  22.2169 15.76377502  4891
STARLINK-36637          
1 67633U 26020S   26052.89192049  .00323717  00000+0  19088-2 0  9992
2 67633  42.9981 238.1093 0001607 320.0844  39.9907 15.76450710  3591
STARLINK-36617          
1 67634U 26020T   26052.66235803  .00361859  00000+0  16589-2 0  9996
2 67634  42.9998 238.9420 0007515 299.3204  60.6916 15.81877180  3562
STARLINK-36627          
1 67635U 26020U   26052.88534293  .00350650  00000+0  20592-2 0  9992
2 67635  42.9989 238.0539 0002469 287.1813  72.8786 15.76467534  3594
STARLINK-36624          
1 67636U 26020V   26053.00003471  .00101705  00000+0  62148-3 0  9996
2 67636  42.9996 237.0806 0001783 278.4829 125.1910 15.76314803  4869
STARLINK-36610          
1 67637U 26020W   26052.88754060  .00354232  00000+0  20802-2 0  9994
2 67637  42.9980 238.0723 0001383 294.7407  65.3318 15.76457309  3596
STARLINK-36599          
1 67638U 26020X   26052.59505837  .00375504  00000+0  17085-2 0  9993
2 67638  42.9983 239.2951 0003095 287.9163  72.1371 15.82028119  3552
STARLINK-36595          
1 67639U 26020Y   26053.00003471  .00166476  00000+0  10093-2 0  9996
2 67639  42.9992 236.9868 0001767 266.7354 174.2725 15.76277063  4864
STARLINK-36570          
1 67640U 26020Z   26052.88096899  .00295104  00000+0  17486-2 0  9993
2 67640  42.9992 238.0181 0001720 274.9797  85.0876 15.76420572  3598
STARLINK-36514          
1 67641U 26020AA  26053.16668981 -.01887211  00000+0 -11941-1 0  9991
2 67641  42.9993 235.7591 0001579 269.3734 123.1821 15.78745020  4898
STARLINK-36556          
1 67642U 26020AB  26052.55321311  .00326162  00000+0  19064-2 0  9992
2 67642  42.9983 239.8534 0002323 232.1943 127.8717 15.76642330  3542
STARLINK-36533          
1 67643U 26020AC  26052.88315795  .00208430  00000+0  12490-2 0  9991
2 67643  42.9984 238.0354 0001458 288.9246  71.1465 15.76415332  3594
STARLINK-36623          
1 67644U 26020AD  26052.87659134  .00262274  00000+0  15306-2 0  9994
2 67644  42.9981 237.9819 0003635 292.1408  67.9076 15.76853867  3592
STARLINK-36619          
1 67645U 26020AE  26052.87440234  .00225448  00000+0  13483-2 0  9990
2 67645  42.9976 237.9640 0001190 292.8765  67.1979 15.76410086  3592
ALSAT-3B                
1 67646U 26021A   26053.14810082  .00006633  00000+0  27872-3 0  9996
2 67646  97.4693 127.5523 0012653 183.6607 176.4539 15.23693106  3354
CZ-2C R/B               
1 67647U 26021B   26053.15144076  .00011648  00000+0  35116-3 0  9993
2 67647  97.6532 128.3089 0152986  65.3116 296.3962 15.23640541  3335
STARLINK-36719          
1 67648U 26022A   26053.09841898  .00148366  00000+0  97770-3 0  9996
2 67648  97.2837  86.2934 0001851  89.6798 270.4679 15.75205903  3097
STARLINK-36342          
1 67649U 26022B   26053.09770786  .00141203  00000+0  93259-3 0  9995
2 67649  97.2839  86.2939 0001168 103.8323 256.3072 15.75175199  3092
STARLINK-36703          
1 67650U 26022C   26053.09664566  .00143937  00000+0  95075-3 0  9999
2 67650  97.2838  86.2953 0001587  92.8128 267.3319 15.75164503  3097
STARLINK-36696          
1 67651U 26022D   26053.15841951  .00171882  00000+0  11286-2 0  9993
2 67651  97.2841  86.3645 0001359 116.5665 243.5739 15.75222647  3106
STARLINK-36699          
1 67652U 26022E   26053.09418508  .00125306  00000+0  82779-3 0  9991
2 67652  97.2839  86.2988 0001735  98.8891 261.2571 15.75215113  3093
STARLINK-36694          
1 67653U 26022F   26053.09206679  .00139238  00000+0  91794-3 0  9992
2 67653  97.2839  86.3018 0001780 115.9371 244.2077 15.75222301  3092
STARLINK-36620          
1 67654U 26022G   26053.09171288  .00116880  00000+0  77294-3 0  9997
2 67654  97.2845  86.3014 0001441 107.7653 252.3769 15.75215720  3097
STARLINK-36720          
1 67655U 26022H   26053.15347830  .00171025  00000+0  11235-2 0  9997
2 67655  97.2841  86.3707 0001512 112.9180 247.2245 15.75214284  3103
STARLINK-36688          
1 67656U 26022J   26053.15277276  .00118334  00000+0  78273-3 0  9994
2 67656  97.2846  86.3711 0001558  71.3337 288.8097 15.75206234  3108
STARLINK-36706          
1 67657U 26022K   26053.15135948  .00177798  00000+0  11662-2 0  9991
2 67657  97.2846  86.3723 0001186  62.4873 297.6512 15.75230718  3109
STARLINK-36701          
1 67658U 26022L   26053.15030159  .00165037  00000+0  10847-2 0  9997
2 67658  97.2844  86.3745 0001509  62.8130 297.3289 15.75219998  3106
STARLINK-36642          
1 67659U 26022M   26053.14924405  .00115835  00000+0  76660-3 0  9990
2 67659  97.2847  86.3764 0001382  73.1991 286.9425 15.75201772  3107
STARLINK-36673          
1 67660U 26022N   26053.14783239  .00104615  00000+0  69345-3 0  9996
2 67660  97.2848  86.3772 0001437  96.6789 263.4640 15.75198261  3102
STARLINK-36674          
1 67661U 26022P   26053.14642020  .00141651  00000+0  93401-3 0  9990
2 67661  97.2848  86.3795 0001231  67.4382 292.7013 15.75211940  3104
STARLINK-36700          
1 67662U 26022Q   26053.14430314  .00147320  00000+0  97047-3 0  9991
2 67662  97.2850  86.3821 0001504  74.4179 285.7252 15.75217300  3106
STARLINK-36675          
1 67663U 26022R   26053.14571492  .00100290  00000+0  66513-3 0  9994
2 67663  97.2849  86.3805 0001433  79.6557 280.4869 15.75198892  3105
STARLINK-36404          
1 67664U 26022S   26053.14253794  .00153143  00000+0  10079-2 0  9997
2 67664  97.2851  86.3834 0001483 107.0112 253.1316 15.75222873  3100
STARLINK-36399          
1 67665U 26022T   26053.14183352  .00121395  00000+0  80259-3 0  9992
2 67665  97.2852  86.3846 0001640 109.4736 250.6706 15.75208430  3106
STARLINK-36365          
1 67666U 26022U   26053.14041994  .00147008  00000+0  96812-3 0  9999
2 67666  97.2850  86.3867 0001530  96.4413 263.7026 15.75225296  3102
STARLINK-36622          
1 67667U 26022V   26053.13865700  .00121825  00000+0  80537-3 0  9994
2 67667  97.2850  86.3890 0001624  98.1738 261.9712 15.75208924  3103
STARLINK-36625          
1 67668U 26022W   26053.13724568  .00096776  00000+0  64208-3 0  9994
2 67668  97.2850  86.3906 0001765  76.8887 283.2575 15.75199848  3104
STARLINK-36639          
1 67669U 26022X   26053.13547928  .00145649  00000+0  95924-3 0  9991
2 67669  97.2845  86.3931 0002247 116.1575 243.9922 15.75226387  3103
STARLINK-36596          
1 67670U 26022Y   26053.13371561  .00065245  00000+0  43503-3 0  9990
2 67670  97.2852  86.3952 0001199 101.6245 258.5155 15.75186685  3100
STARLINK-36297          
1 67671U 26022Z   26053.13159964  .00077716  00000+0  51731-3 0  9990
2 67671  97.2853  86.3982 0001125  81.4516 278.6877 15.75184405  3102
STARLINK-36616          
1 67672U 26022AA  26053.13301082  .00115009  00000+0  76109-3 0  9995
2 67672  97.2851  86.3961 0001639  87.2987 272.8466 15.75205210  3102
COSMOS 2600             
1 67674U 26023A   26053.16469323  .00052682  00000+0  24586-3 0  9993
2 67674  96.6457 129.2927 0001720  59.9960 300.1482 15.83169299  2596
2026-023B               
1 67675U 26023B   26053.14644319  .00009602  00000+0  41405-3 0  9995
2 67675  96.6381 127.8959 0018295 185.4770 174.6272 15.22571093  2493
2026-023C               
1 67676U 26023C   26053.21147538  .00012058  00000+0  51749-3 0  9996
2 67676  96.6417 127.9709 0019486 175.2450 184.8977 15.22657814  2663
2026-023D               
1 67677U 26023D   26053.14708958  .00010728  00000+0  46283-3 0  9997
2 67677  96.6448 127.8981 0019622 180.6156 179.5062 15.22503659  2487
2026-023E               
1 67678U 26023E   26053.21176649  .00011715  00000+0  50325-3 0  9991
2 67678  96.6340 127.9504 0019451 179.7289 180.3964 15.22632951  2497
2026-023F               
1 67679U 26023F   26053.21027247  .00012375  00000+0  52867-3 0  9997
2 67679  96.6349 130.4486 0021381 174.4909 185.6569 15.22772144  2488
2026-023G               
1 67680U 26023G   26053.21067439  .00012457  00000+0  53223-3 0  9994
2 67680  96.6276 130.4409 0023011 171.0718 189.0934 15.22732723  2480
2026-023H               
1 67681U 26023H   26053.21050759  .00016015  00000+0  68352-3 0  9995
2 67681  96.6423 130.4527 0022996 170.4515 189.7165 15.22718527  2484
2026-023J               
1 67682U 26023J   26053.20997503  .00011479  00000+0  48969-3 0  9993
2 67682  96.6377 130.4622 0023226 167.2988 192.8841 15.22797570  2485
